CCSDS_OMM_VERS = 2.0
CREATION_DATE  = 
ORIGINATOR     = 

OBJECT_NAME    = STARLINK-36474
OBJECT_ID      = 2026-003V
CENTER_NAME    = EARTH
REF_FRAME      = TEME
TIME_SYSTEM    = UTC
MEAN_ELEMENT_THEORY = SGP/SGP4

EPOCH          = 2026-02-03T12:00:01.999296
MEAN_MOTION    = 15.50495903
ECCENTRICITY   = .0001355
INCLINATION    = 42.9996
RA_OF_ASC_NODE = 61.4204
ARG_OF_PERICENTER = 282.6847
MEAN_ANOMALY   = 321.8536

EPHEMERIS_TYPE = 0
CLASSIFICATION_TYPE = U
NORAD_CAT_ID   = 67353
ELEMENT_SET_NO = 999
REV_AT_EPOCH   = 518
BSTAR          = .1948E-2
MEAN_MOTION_DOT = .115293E-2
MEAN_MOTION_DDOT = 0

CCSDS_OMM_VERS = 2.0
CREATION_DATE  = 
ORIGINATOR     = 

OBJECT_NAME    = STARLINK-36448
OBJECT_ID      = 2026-003W
CENTER_NAME    = EARTH
REF_FRAME      = TEME
TIME_SYSTEM    = UTC
MEAN_ELEMENT_THEORY = SGP/SGP4

EPOCH          = 2026-02-03T12:00:01.999296
MEAN_MOTION    = 15.50484579
ECCENTRICITY   = .0001573
INCLINATION    = 42.9997
RA_OF_ASC_NODE = 61.4067
ARG_OF_PERICENTER = 280.1125
MEAN_ANOMALY   = 330.1845

EPHEMERIS_TYPE = 0
CLASSIFICATION_TYPE = U
NORAD_CAT_ID   = 67354
ELEMENT_SET_NO = 999
REV_AT_EPOCH   = 518
BSTAR          = .23054E-2
MEAN_MOTION_DOT = .136834E-2
MEAN_MOTION_DDOT = 0

CCSDS_OMM_VERS = 2.0
CREATION_DATE  = 
ORIGINATOR     = 

OBJECT_NAME    = STARLINK-36477
OBJECT_ID      = 2026-003X
CENTER_NAME    = EARTH
REF_FRAME      = TEME
TIME_SYSTEM    = UTC
MEAN_ELEMENT_THEORY = SGP/SGP4

EPOCH          = 2026-02-03T12:00:01.999296
MEAN_MOTION    = 15.50562278
ECCENTRICITY   = .0001231
INCLINATION    = 42.9996
RA_OF_ASC_NODE = 61.4154
ARG_OF_PERICENTER = 275.0763
MEAN_ANOMALY   = 331.3634

EPHEMERIS_TYPE = 0
CLASSIFICATION_TYPE = U
NORAD_CAT_ID   = 67355
ELEMENT_SET_NO = 999
REV_AT_EPOCH   = 517
BSTAR          = -.82854E-4
MEAN_MOTION_DOT = -.5196E-4
MEAN_MOTION_DDOT = 0

CCSDS_OMM_VERS = 2.0
CREATION_DATE  = 
ORIGINATOR     = 

OBJECT_NAME    = STARLINK-36429
OBJECT_ID      = 2026-003Y
CENTER_NAME    = EARTH
REF_FRAME      = TEME
TIME_SYSTEM    = UTC
MEAN_ELEMENT_THEORY = SGP/SGP4

EPOCH          = 2026-02-03T12:00:01.999296
MEAN_MOTION    = 15.50495001
ECCENTRICITY   = .0001309
INCLINATION    = 42.9996
RA_OF_ASC_NODE = 61.4106
ARG_OF_PERICENTER = 279.5757
MEAN_ANOMALY   = 328.7977

EPHEMERIS_TYPE = 0
CLASSIFICATION_TYPE = U
NORAD_CAT_ID   = 67356
ELEMENT_SET_NO = 999
REV_AT_EPOCH   = 517
BSTAR          = .19905E-2
MEAN_MOTION_DOT = .117853E-2
MEAN_MOTION_DDOT = 0

CCSDS_OMM_VERS = 2.0
CREATION_DATE  = 
ORIGINATOR     = 

OBJECT_NAME    = STARLINK-36456
OBJECT_ID      = 2026-003Z
CENTER_NAME    = EARTH
REF_FRAME      = TEME
TIME_SYSTEM    = UTC
MEAN_ELEMENT_THEORY = SGP/SGP4

EPOCH          = 2026-02-03T12:00:01.999296
MEAN_MOTION    = 15.50493307
ECCENTRICITY   = .000132
INCLINATION    = 42.9996
RA_OF_ASC_NODE = 61.4001
ARG_OF_PERICENTER = 278.6090
MEAN_ANOMALY   = 333.5996

EPHEMERIS_TYPE = 0
CLASSIFICATION_TYPE = U
NORAD_CAT_ID   = 67357
ELEMENT_SET_NO = 999
REV_AT_EPOCH   = 518
BSTAR          = .1984E-2
MEAN_MOTION_DOT = .117451E-2
MEAN_MOTION_DDOT = 0

CCSDS_OMM_VERS = 2.0
CREATION_DATE  = 
ORIGINATOR     = 

OBJECT_NAME    = STARLINK-36466
OBJECT_ID      = 2026-003AA
CENTER_NAME    = EARTH
REF_FRAME      = TEME
TIME_SYSTEM    = UTC
MEAN_ELEMENT_THEORY = SGP/SGP4

EPOCH          = 2026-02-03T12:00:01.999296
MEAN_MOTION    = 15.50496164
ECCENTRICITY   = .0001344
INCLINATION    = 42.9995
RA_OF_ASC_NODE = 61.3954
ARG_OF_PERICENTER = 281.5671
MEAN_ANOMALY   = 332.5574

EPHEMERIS_TYPE = 0
CLASSIFICATION_TYPE = U
NORAD_CAT_ID   = 67358
ELEMENT_SET_NO = 999
REV_AT_EPOCH   = 518
BSTAR          = .19659E-2
MEAN_MOTION_DOT = .116375E-2
MEAN_MOTION_DDOT = 0

CCSDS_OMM_VERS = 2.0
CREATION_DATE  = 
ORIGINATOR     = 

OBJECT_NAME    = STARLINK-36499
OBJECT_ID      = 2026-003AB
CENTER_NAME    = EARTH
REF_FRAME      = TEME
TIME_SYSTEM    = UTC
MEAN_ELEMENT_THEORY = SGP/SGP4

EPOCH          = 2026-02-03T12:00:01.999296
MEAN_MOTION    = 15.50487922
ECCENTRICITY   = .0001462
INCLINATION    = 42.9997
RA_OF_ASC_NODE = 61.3908
ARG_OF_PERICENTER = 276.5470
MEAN_ANOMALY   = 339.4496

EPHEMERIS_TYPE = 0
CLASSIFICATION_TYPE = U
NORAD_CAT_ID   = 67359
ELEMENT_SET_NO = 999
REV_AT_EPOCH   = 518
BSTAR          = .19945E-2
MEAN_MOTION_DOT = .118064E-2
MEAN_MOTION_DDOT = 0

CCSDS_OMM_VERS = 2.0
CREATION_DATE  = 
ORIGINATOR     = 

OBJECT_NAME    = STARLINK-36469
OBJECT_ID      = 2026-003AC
CENTER_NAME    = EARTH
REF_FRAME      = TEME
TIME_SYSTEM    = UTC
MEAN_ELEMENT_THEORY = SGP/SGP4

EPOCH          = 2026-02-03T12:00:01.999296
MEAN_MOTION    = 15.50502683
ECCENTRICITY   = .00013
INCLINATION    = 42.9996
RA_OF_ASC_NODE = 61.3860
ARG_OF_PERICENTER = 279.6364
MEAN_ANOMALY   = 338.2423

EPHEMERIS_TYPE = 0
CLASSIFICATION_TYPE = U
NORAD_CAT_ID   = 67360
ELEMENT_SET_NO = 999
REV_AT_EPOCH   = 518
BSTAR          = .20676E-2
MEAN_MOTION_DOT = .122535E-2
MEAN_MOTION_DDOT = 0

CCSDS_OMM_VERS = 2.0
CREATION_DATE  = 
ORIGINATOR     = 

OBJECT_NAME    = STARLINK-35306
OBJECT_ID      = 2026-003AD
CENTER_NAME    = EARTH
REF_FRAME      = TEME
TIME_SYSTEM    = UTC
MEAN_ELEMENT_THEORY = SGP/SGP4

EPOCH          = 2026-02-03T12:00:01.999296
MEAN_MOTION    = 15.50493189
ECCENTRICITY   = .0001792
INCLINATION    = 42.9999
RA_OF_ASC_NODE = 61.3804
ARG_OF_PERICENTER = 277.9267
MEAN_ANOMALY   = 341.9497

EPHEMERIS_TYPE = 0
CLASSIFICATION_TYPE = U
NORAD_CAT_ID   = 67361
ELEMENT_SET_NO = 999
REV_AT_EPOCH   = 512
BSTAR          = .20521E-2
MEAN_MOTION_DOT = .121561E-2
MEAN_MOTION_DDOT = 0

CCSDS_OMM_VERS = 2.0
CREATION_DATE  = 
ORIGINATOR     = 

OBJECT_NAME    = STARLINK-36428
OBJECT_ID      = 2026-003AE
CENTER_NAME    = EARTH
REF_FRAME      = TEME
TIME_SYSTEM    = UTC
MEAN_ELEMENT_THEORY = SGP/SGP4

EPOCH          = 2026-02-03T12:00:01.999296
MEAN_MOTION    = 15.50488748
ECCENTRICITY   = .0001996
INCLINATION    = 42.9999
RA_OF_ASC_NODE = 61.3758
ARG_OF_PERICENTER = 284.2490
MEAN_ANOMALY   = 337.5414

EPHEMERIS_TYPE = 0
CLASSIFICATION_TYPE = U
NORAD_CAT_ID   = 67362
ELEMENT_SET_NO = 999
REV_AT_EPOCH   = 518
BSTAR          = .21799E-2
MEAN_MOTION_DOT = .12926E-2
MEAN_MOTION_DDOT = 0

CCSDS_OMM_VERS = 2.0
CREATION_DATE  = 
ORIGINATOR     = 

OBJECT_NAME    = TWILIGHT A
OBJECT_ID      = 2026-004A
CENTER_NAME    = EARTH
REF_FRAME      = TEME
TIME_SYSTEM    = UTC
MEAN_ELEMENT_THEORY = SGP/SGP4

EPOCH          = 2026-02-03T11:50:55.130496
MEAN_MOTION    = 14.87015185
ECCENTRICITY   = .0007884
INCLINATION    = 97.7994
RA_OF_ASC_NODE = 35.2464
ARG_OF_PERICENTER = 211.0771
MEAN_ANOMALY   = 148.9979

EPHEMERIS_TYPE = 0
CLASSIFICATION_TYPE = U
NORAD_CAT_ID   = 67363
ELEMENT_SET_NO = 999
REV_AT_EPOCH   = 340
BSTAR          = .52174E-3
MEAN_MOTION_DOT = .4624E-4
MEAN_MOTION_DDOT = 0

CCSDS_OMM_VERS = 2.0
CREATION_DATE  = 
ORIGINATOR     = 

OBJECT_NAME    = TWILIGHT B
OBJECT_ID      = 2026-004B
CENTER_NAME    = EARTH
REF_FRAME      = TEME
TIME_SYSTEM    = UTC
MEAN_ELEMENT_THEORY = SGP/SGP4

EPOCH          = 2026-02-03T11:48:48.296160
MEAN_MOTION    = 14.87141687
ECCENTRICITY   = .000781
INCLINATION    = 97.7997
RA_OF_ASC_NODE = 35.2486
ARG_OF_PERICENTER = 206.0792
MEAN_ANOMALY   = 154.0031

EPHEMERIS_TYPE = 0
CLASSIFICATION_TYPE = U
NORAD_CAT_ID   = 67364
ELEMENT_SET_NO = 999
REV_AT_EPOCH   = 341
BSTAR          = .64992E-3
MEAN_MOTION_DOT = .5792E-4
MEAN_MOTION_DDOT = 0

