STARLINK-36474          
1 67353U 26003V   26034.50002314  .00115293  00000+0  19480-2 0  9999
2 67353  42.9996  61.4204 0001355 282.6847 321.8536 15.50495903  5186
STARLINK-36448          
1 67354U 26003W   26034.50002314  .00136834  00000+0  23054-2 0  9996
2 67354  42.9997  61.4067 0001573 280.1125 330.1845 15.50484579  5182
STARLINK-36477          
1 67355U 26003X   26034.50002314 -.00005196  00000+0 -82854-4 0  9990
2 67355  42.9996  61.4154 0001231 275.0763 331.3634 15.50562278  5172
STARLINK-36429          
1 67356U 26003Y   26034.50002314  .00117853  00000+0  19905-2 0  9998
2 67356  42.9996  61.4106 0001309 279.5757 328.7977 15.50495001  5177
STARLINK-36456          
1 67357U 26003Z   26034.50002314  .00117451  00000+0  19840-2 0  9991
2 67357  42.9996  61.4001 0001320 278.6090 333.5996 15.50493307  5188
STARLINK-36466          
1 67358U 26003AA  26034.50002314  .00116375  00000+0  19659-2 0  9994
2 67358  42.9995  61.3954 0001344 281.5671 332.5574 15.50496164  5183
STARLINK-36499          
1 67359U 26003AB  26034.50002314  .00118064  00000+0  19945-2 0  9990
2 67359  42.9997  61.3908 0001462 276.5470 339.4496 15.50487922  5188
STARLINK-36469          
1 67360U 26003AC  26034.50002314  .00122535  00000+0  20676-2 0  9993
2 67360  42.9996  61.3860 0001300 279.6364 338.2423 15.50502683  5182
STARLINK-35306          
1 67361U 26003AD  26034.50002314  .00121561  00000+0  20521-2 0  9991
2 67361  42.9999  61.3804 0001792 277.9267 341.9497 15.50493189  5128
STARLINK-36428          
1 67362U 26003AE  26034.50002314  .00129260  00000+0  21799-2 0  9994
2 67362  42.9999  61.3758 0001996 284.2490 337.5414 15.50488748  5183
TWILIGHT A              
1 67363U 26004A   26034.49369364  .00004624  00000+0  52174-3 0  9993
2 67363  97.7994  35.2464 0007884 211.0771 148.9979 14.87015185  3406
TWILIGHT B              
1 67364U 26004B   26034.49222565  .00005792  00000+0  64992-3 0  9993
2 67364  97.7997  35.2486 0007810 206.0792 154.0031 14.87141687  3415
